{
  "type": "FeatureCollection",
  "name": "unitae-territory-map-overlays",
  "metadata": {
    "extractedFrom": "app/features/territories/ui/TerritoryDocument.tsx (hardcoded Static Maps URL)",
    "extractedAt": "2026-05-03",
    "note": "Coordinates were originally lat,lng for Google Static Maps. GeoJSON uses [lng, lat]; the order has been swapped here. The map was previously centered on 45.7259019,4.8346763 (Lyon) at zoom 13."
  },
  "properties": {
    "defaultCenter": { "lat": 45.7259019, "lng": 4.8346763 },
    "defaultZoom": 13
  },
  "features": [
    {
      "type": "Feature",
      "properties": {
        "name": "Zone rose",
        "color": "#C2175B",
        "fillOpacity": 0.5,
        "strokeWeight": 1
      },
      "geometry": {
        "type": "Polygon",
        "coordinates": [
          [
            [4.8229874, 45.7511927],
            [4.820051, 45.7492189],
            [4.8185312, 45.7482237],
            [4.8172046, 45.7471537],
            [4.8160314, 45.7460151],
            [4.8154805, 45.745176],
            [4.8147885, 45.7443374],
            [4.8146115, 45.7437534],
            [4.8142842, 45.7429036],
            [4.8141286, 45.7420538],
            [4.8139071, 45.7408039],
            [4.8139859, 45.7395241],
            [4.8145009, 45.7371204],
            [4.8153485, 45.733144],
            [4.8156059, 45.7322229],
            [4.8167754, 45.7316987],
            [4.8176338, 45.7309123],
            [4.8181235, 45.7299943],
            [4.8184738, 45.7282001],
            [4.8186455, 45.7282001],
            [4.818624, 45.7292635],
            [4.8186562, 45.7308587],
            [4.8189244, 45.7324689],
            [4.8197398, 45.7348652],
            [4.82092, 45.7371417],
            [4.8310051, 45.7486574],
            [4.8229874, 45.7511927]
          ]
        ]
      }
    },
    {
      "type": "Feature",
      "properties": {
        "name": "Zone verte",
        "color": "#0E9A6C",
        "fillOpacity": 0.5,
        "strokeWeight": 1
      },
      "geometry": {
        "type": "Polygon",
        "coordinates": [
          [
            [4.8330435, 45.7479761],
            [4.8278771, 45.7422258],
            [4.8254337, 45.7392832],
            [4.8237079, 45.7372203],
            [4.8232052, 45.7363405],
            [4.8218963, 45.7346855],
            [4.8211882, 45.7318922],
            [4.8207483, 45.7301622],
            [4.8206518, 45.7284173],
            [4.8205016, 45.7259682],
            [4.8218287, 45.7196252],
            [4.8238275, 45.716357],
            [4.8253692, 45.7141344],
            [4.8278154, 45.7126511],
            [4.8335983, 45.7105684],
            [4.8376752, 45.7089277],
            [4.8399818, 45.7041776],
            [4.8407758, 45.7034957],
            [4.8420311, 45.7019222],
            [4.8428787, 45.7022969],
            [4.8447991, 45.7027315],
            [4.8443807, 45.7036231],
            [4.8439408, 45.705279],
            [4.8432005, 45.7151981],
            [4.8434366, 45.7156701],
            [4.8443378, 45.7160072],
            [4.849831, 45.716524],
            [4.8484931, 45.7246115],
            [4.8479856, 45.7262315],
            [4.8481143, 45.7278792],
            [4.8485113, 45.7293284],
            [4.8475275, 45.7390651],
            [4.8469052, 45.7416859],
            [4.8453603, 45.7440219],
            [4.8330435, 45.7479761]
          ]
        ]
      }
    },
    {
      "type": "Feature",
      "properties": {
        "name": "Zone bleue",
        "color": "#2289BC",
        "fillOpacity": 0.5,
        "strokeWeight": 1
      },
      "geometry": {
        "type": "Polygon",
        "coordinates": [
          [
            [4.8453603, 45.7440219],
            [4.8469052, 45.7416859],
            [4.8475275, 45.7390651],
            [4.8485113, 45.7293284],
            [4.8521913, 45.7293771],
            [4.8537417, 45.7297665],
            [4.8531194, 45.7358961],
            [4.8525264, 45.7374207],
            [4.8514579, 45.7405681],
            [4.8507337, 45.7423277],
            [4.8453603, 45.7440219]
          ]
        ]
      }
    }
  ]
}
